{
  "norad_id": 58349,
  "name": "HAIYANG-3A",
  "history": [
    {
      "epoch": "2026-04-10T06:48:44.348832Z",
      "apogee_km": 784.2620640982268,
      "perigee_km": 771.5040253217157,
      "latitude_deg": 3.53446154782746e-05,
      "longitude_deg": -121.68569465567877,
      "height_km": 785.6557545158687,
      "semi_major_axis_km": 7156.0200447099705,
      "eccentricity": 0.00089142,
      "inclination_deg": 98.548,
      "raan_deg": 179.019,
      "arg_perigee_deg": 220.8315,
      "mean_anomaly_deg": 139.2203,
      "mean_motion_rev_day": 14.34152847
    },
    {
      "epoch": "2026-04-11T21:19:26.614272Z",
      "apogee_km": 784.3269406408999,
      "perigee_km": 771.4375188043232,
      "latitude_deg": -1.2914191696078645e-05,
      "longitude_deg": 20.643382490351893,
      "height_km": 786.0604092034295,
      "semi_major_axis_km": 7156.019229722611,
      "eccentricity": 0.0009006,
      "inclination_deg": 98.5478,
      "raan_deg": 180.6058,
      "arg_perigee_deg": 215.7195,
      "mean_anomaly_deg": 144.3388,
      "mean_motion_rev_day": 14.34153092
    },
    {
      "epoch": "2026-04-13T06:48:45.086688Z",
      "apogee_km": 784.3873587233466,
      "perigee_km": 771.3749983878242,
      "latitude_deg": -2.0061389428843627e-05,
      "longitude_deg": -121.67900772688782,
      "height_km": 786.3811280298742,
      "semi_major_axis_km": 7156.018178555585,
      "eccentricity": 0.00090919,
      "inclination_deg": 98.5478,
      "raan_deg": 181.9857,
      "arg_perigee_deg": 211.3812,
      "mean_anomaly_deg": 148.6831,
      "mean_motion_rev_day": 14.34153408
    },
    {
      "epoch": "2026-04-14T21:19:27.318432Z",
      "apogee_km": 784.4459861931327,
      "perigee_km": 771.3146943737138,
      "latitude_deg": 1.4194235964834823e-05,
      "longitude_deg": 20.650202720811496,
      "height_km": 786.7078229064929,
      "semi_major_axis_km": 7156.017340283423,
      "eccentricity": 0.0009175,
      "inclination_deg": 98.5476,
      "raan_deg": 183.5725,
      "arg_perigee_deg": 206.3693,
      "mean_anomaly_deg": 153.7026,
      "mean_motion_rev_day": 14.3415366
    },
    {
      "epoch": "2026-04-15T20:45:58.228992Z",
      "apogee_km": 784.4891085007184,
      "perigee_km": 771.2705142467494,
      "latitude_deg": -2.8339189804637808e-05,
      "longitude_deg": 29.024491551159745,
      "height_km": 786.892112102024,
      "semi_major_axis_km": 7156.016811373734,
      "eccentricity": 0.0009236,
      "inclination_deg": 98.5476,
      "raan_deg": 184.5383,
      "arg_perigee_deg": 203.3577,
      "mean_anomaly_deg": 156.7189,
      "mean_motion_rev_day": 14.34153819
    },
    {
      "epoch": "2026-04-16T20:12:29.135232Z",
      "apogee_km": 784.5305332333373,
      "perigee_km": 771.2274994589498,
      "latitude_deg": -1.7872255952078533e-05,
      "longitude_deg": 37.39889046827826,
      "height_km": 787.0587757800716,
      "semi_major_axis_km": 7156.016016346143,
      "eccentricity": 0.0009295,
      "inclination_deg": 98.5475,
      "raan_deg": 185.5042,
      "arg_perigee_deg": 200.3717,
      "mean_anomaly_deg": 159.7098,
      "mean_motion_rev_day": 14.34154058
    },
    {
      "epoch": "2026-04-17T22:59:55.874976Z",
      "apogee_km": 784.5781187890643,
      "perigee_km": 771.1783371543825,
      "latitude_deg": 1.0838228889245235e-05,
      "longitude_deg": -4.458985476063195,
      "height_km": 787.2301612128306,
      "semi_major_axis_km": 7156.015227971723,
      "eccentricity": 0.00093626,
      "inclination_deg": 98.5474,
      "raan_deg": 186.608,
      "arg_perigee_deg": 196.9701,
      "mean_anomaly_deg": 163.1172,
      "mean_motion_rev_day": 14.34154295
    },
    {
      "epoch": "2026-04-18T20:45:58.837248Z",
      "apogee_km": 784.616917393435,
      "perigee_km": 771.1378487015263,
      "latitude_deg": 4.489009458173263e-05,
      "longitude_deg": 29.031607645221793,
      "height_km": 787.3546269887547,
      "semi_major_axis_km": 7156.01438304748,
      "eccentricity": 0.0009418,
      "inclination_deg": 98.5474,
      "raan_deg": 187.5049,
      "arg_perigee_deg": 194.1892,
      "mean_anomaly_deg": 165.903,
      "mean_motion_rev_day": 14.34154549
    },
    {
      "epoch": "2026-04-19T20:12:29.707200Z",
      "apogee_km": 784.6599031560318,
      "perigee_km": 771.0935323499161,
      "latitude_deg": -4.257144957882619e-05,
      "longitude_deg": 37.40606989468855,
      "height_km": 787.4726085839375,
      "semi_major_axis_km": 7156.013717752974,
      "eccentricity": 0.0009479,
      "inclination_deg": 98.5473,
      "raan_deg": 188.4707,
      "arg_perigee_deg": 191.2401,
      "mean_anomaly_deg": 168.8573,
      "mean_motion_rev_day": 14.34154749
    },
    {
      "epoch": "2026-04-20T14:37:36.814368Z",
      "apogee_km": 784.6920234516956,
      "perigee_km": 771.0602477891262,
      "latitude_deg": 4.69306427055368e-05,
      "longitude_deg": 121.128915065571,
      "height_km": 787.5515253144702,
      "semi_major_axis_km": 7156.01313562041,
      "eccentricity": 0.00095247,
      "inclination_deg": 98.5473,
      "raan_deg": 189.2296,
      "arg_perigee_deg": 188.9433,
      "mean_anomaly_deg": 171.1584,
      "mean_motion_rev_day": 14.34154924
    },
    {
      "epoch": "2026-04-21T20:45:59.323680Z",
      "apogee_km": 784.7513797092424,
      "perigee_km": 770.9989555255161,
      "latitude_deg": -3.6844208851569395e-05,
      "longitude_deg": 29.039146849446627,
      "height_km": 787.6640612193598,
      "semi_major_axis_km": 7156.012167617379,
      "eccentricity": 0.0009609,
      "inclination_deg": 98.5472,
      "raan_deg": 190.4714,
      "arg_perigee_deg": 185.2579,
      "mean_anomaly_deg": 174.8506,
      "mean_motion_rev_day": 14.34155215
    },
    {
      "epoch": "2026-04-22T20:12:30.153888Z",
      "apogee_km": 784.7971512679233,
      "perigee_km": 770.9517003612582,
      "latitude_deg": 7.411029452413229e-05,
      "longitude_deg": 37.413744151356475,
      "height_km": 787.7321228812092,
      "semi_major_axis_km": 7156.01142581459,
      "eccentricity": 0.0009674,
      "inclination_deg": 98.5471,
      "raan_deg": 191.4372,
      "arg_perigee_deg": 182.3822,
      "mean_anomaly_deg": 177.7319,
      "mean_motion_rev_day": 14.34155438
    }
  ]
}